satname,norad_id,inclination_deg,eccentricity,mean_motion_rev_per_day,perigee_km,apogee_km,l1,l2
STARLINK-1540,46051,53.1586,0.0001056,15.30207021,474.4703942942224,475.9178178238217,1 46051U 20055AA  26108.85251118  .00005639  00000+0  20234-3 0  9992,2 46051  53.1586 287.2907 0001056  82.2948 277.8173 15.30207021315236
STARLINK-1541,46052,53.1629,0.0001578,15.50422893,414.4184017485768,416.5624705674272,1 46052U 20055AB  26109.00002315  .01098159  00000+0  17412-1 0  9996,2 46052  53.1629 285.6210 0001578  68.5627 242.7510 15.50422893  5874
STARLINK-1543,46053,53.1597,0.0001136,15.30208933,474.4098594561401,475.96693498638797,1 46053U 20055AC  26108.78299077  .00001789  00000+0  72504-4 0  9992,2 46053  53.1597 287.6792 0001136  79.5563 280.5566 15.30208933315215
STARLINK-1548,46054,53.1611,8.95e-05,15.30184076,474.6492367596984,475.8759952909668,1 46054U 20055AD  26108.85568569 -.00001214  00000+0 -28898-4 0  9998,2 46054  53.1611 287.3447 0000895  33.6840 326.4218 15.30184076315223
STARLINK-1554,46055,53.1593,0.0001265,15.31721028,469.8109375584336,471.54368757951306,1 46055U 20055AE  26108.91129737  .00005012  00000+0  17306-3 0  9995,2 46055  53.1593 287.1295 0001265  84.7336 275.3810 15.31721028315237
STARLINK-1564,46058,53.1589,0.0001212,15.30207132,474.3631509456991,476.02439832547043,1 46058U 20055AH  26108.85153887  .00001864  00000+0  75016-4 0  9998,2 46058  53.1589 287.8212 0001212  88.4884 271.6256 15.30207132315217
STARLINK-1570,46059,53.1602,0.0001584,15.31722497,469.588082166616,471.7577851535989,1 46059U 20055AJ  26108.87399413 -.00001382  00000+0 -32738-4 0  9999,2 46059  53.1602 287.1835 0001584  94.8875 265.2308 15.31722497315181
STARLINK-1572,46060,53.1603,0.0001015,15.30204969,474.50461919199915,475.8958466502827,1 46060U 20055AK  26108.76721855  .00000837  00000+0  40378-4 0  9999,2 46060  53.1603 287.9604 0001015  95.4413 264.6703 15.30204969315179
STARLINK-1573,46061,53.1578,0.0001401,15.31716592,469.7310150457315,471.6500565212591,1 46061U 20055AL  26108.92526445  .00006036  00000+0  20602-3 0  9990,2 46061  53.1578 286.9155 0001401  92.8730 267.2432 15.31716592315239
STARLINK-1577,46063,53.1606,0.0001332,15.31677973,469.89337819138836,471.7179365153088,1 46063U 20055AN  26109.00002315  .00036538  00000+0  11842-2 0  9992,2 46063  53.1606 286.5597 0001332  75.7128 182.5892 15.31677973  5877
STARLINK-1583,46064,53.1595,0.0001136,15.30205786,474.4192546881486,475.976332353237,1 46064U 20055AP  26108.86199166  .00002186  00000+0  85884-4 0  9998,2 46064  53.1595 287.2692 0001136  93.5112 266.6018 15.30205786315216
STARLINK-1536,46070,53.1374,0.0001011,15.27661202,482.11231747664806,483.4996001429181,1 46070U 20055AV  26109.00002315  .00076832  00000+0  27881-2 0  9991,2 46070  53.1374 274.2646 0001011 125.8406 147.4756 15.27661202  5755
STARLINK-1542,46073,53.0586,0.0001811,15.0724591,543.366466903798,545.8738895537526,1 46073U 20055AY  26108.94795791  .00099698  00000+0  64686-2 0  9992,2 46073  53.0586 275.8817 0001811 120.3619 239.7550 15.07245910315374
STARLINK-1549,46074,53.0497,6.11e-05,15.25721644,488.19977100526376,489.0388886287665,1 46074U 20055AZ  26108.75067133  .00042798  00000+0  16602-2 0  9998,2 46074  53.0497 274.8404 0000611  78.5391 281.5675 15.25721644315360
STARLINK-1551,46075,53.1573,0.0001146,15.29375946,476.8909746053041,478.4623270940792,1 46075U 20055BA  26108.64101855 -.00002789  00000+0 -84289-4 0  9993,2 46075  53.1573 275.4361 0001146  90.1016 270.0116 15.29375946315350
STARLINK-1552,46076,53.1607,0.0001136,15.30132148,474.6391069367837,476.1962345579768,1 46076U 20055BB  26108.92467780  .00063463  00000+0  21411-2 0  9997,2 46076  53.1607 274.0882 0001136  80.1284 279.9845 15.30132148315384
STARLINK-1559,46077,53.0247,0.0001162,15.33658866,464.11177196984954,465.70209538003473,1 46077U 20055BC  26108.62488603  .00044238  00000+0  13437-2 0  9990,2 46077  53.0247 247.4536 0001162 205.9165 154.1778 15.33658866315706
STARLINK-1566,46079,53.1562,0.0001076,15.29384081,476.91465656415767,478.39002243001687,1 46079U 20055BE  26108.87587459  .00009889  00000+0  35427-3 0  9995,2 46079  53.1562 274.2972 0001076 110.9349 249.1766 15.29384081315391
STARLINK-1568,46080,53.0597,0.0003585,15.49864965,414.6846406945788,419.55684049458523,1 46080U 20055BF  26108.71261340  .00043270  00000+0  76644-3 0  9996,2 46080  53.0597 201.5089 0003585 289.1352  70.9268 15.49864965316396
STARLINK-1578,46082,53.1537,0.0001096,15.29342647,477.02475868641886,478.5275748525746,1 46082U 20055BH  26109.00002315  .00013663  00000+0  48515-3 0  9995,2 46082  53.1537 274.1239 0001096  91.6432 276.4834 15.29342647  5805
STARLINK-1579,46083,53.1602,5.88e-05,15.30178806,474.87537079081267,475.68133243616194,1 46083U 20055BJ  26109.00002315  .00016512  00000+0  56873-3 0  9998,2 46083  53.1602 273.7961 0000588  92.0508 271.3191 15.30178806  5750
STARLINK-1593,46119,53.0361,0.0004116,15.94434531,287.145911192365,292.6350314067395,1 46119U 20057C   26109.00002315  .00390949  71352-4  10198-2 0  9991,2 46119  53.0361  67.0818 0004116  96.6975 220.4425 15.94434531  6010
STARLINK-1621,46127,53.0364,0.0003723,16.02072172,266.2064330725452,271.15565378768315,1 46127U 20057L   26108.90534772  .00644078  20290-3  10932-2 0  9990,2 46127  53.0364  39.5720 0003723 131.6491 228.4858 16.02072172313472
STARLINK-1622,46128,53.0219,0.0001287,15.71618573,353.40421207819054,355.1371338132076,1 46128U 20057M   26108.47102477  .00120833  00000+0  91200-3 0  9995,2 46128  53.0219  27.9739 0001287  40.2943 319.8169 15.71618573313604
STARLINK-1623,46129,53.0462,0.0002672,15.61332364,382.00067833953017,385.6142614642449,1 46129U 20057N   26108.88352343  .00089171  00000+0  10238-2 0  9990,2 46129  53.0462  61.0603 0002672  31.3464 328.7708 15.61332364313183
STARLINK-1624,46130,53.0382,0.0007254,15.82049084,319.7845118207624,329.5089104288627,1 46130U 20057P   26109.00002315  .00191693  00000+0  90145-3 0  9997,2 46130  53.0382  31.6384 0007254 117.0688 102.2059 15.82049084  5994
STARLINK-1596,46141,53.0398,0.0002104,15.51260565,411.61567093965914,414.47340012981203,1 46141U 20057AA  26108.19458018  .00059440  00000+0  99730-3 0  9995,2 46141  53.0398  41.7483 0002104 106.3736 253.7504 15.51260565313397
STARLINK-1597,46142,53.0452,0.0004986,15.65200863,369.2951941986403,376.02709010599483,1 46142U 20057AB  26108.99059136  .00076271  00000+0  75431-3 0  9995,2 46142  53.0452 100.3139 0004986   5.2211 354.8854 15.65200863312631
